ORBCOMM-X [-]           
1 21576U 91050C   23341.16319243  .00000405  00000+0  13598-3 0  9995
2 21576  98.4164  46.2963 0004783  76.8727 283.2996 14.42284862701653
ORBCOMM FM01 [-]        
1 23545U 95017A   23341.51805255  .00003215  00000+0  46003-3 0  9991
2 23545  69.9695   9.9426 0001838  49.9721 310.1588 14.77569382529810
ORBCOMM FM02 [-]        
1 23546U 95017B   23342.18237600  .00003935  00000+0  56588-3 0  9997
2 23546  69.9717  27.4723 0004203  51.3589 308.7935 14.77160626529861
ORBCOMM FM08 [-]        
1 25112U 97084A   23341.83745596  .00001191  00000+0  40563-3 0  9991
2 25112  45.0126 154.0977 0006675 312.1671  47.8611 14.41664328361005
ORBCOMM FM10 [-]        
1 25113U 97084B   23341.48986195  .00001229  00000+0  41783-3 0  9992
2 25113  45.0139 157.5049 0004677 276.7010  83.3307 14.41597816535939
ORBCOMM FM11 [+]        
1 25114U 97084C   23341.63477074  .00001164  00000+0  39880-3 0  9994
2 25114  45.0123 156.7647 0005396 279.8322  80.1918 14.41487379360950
ORBCOMM FM12 [-]        
1 25115U 97084D   23341.59160468  .00001207  00000+0  41232-3 0  9998
2 25115  45.0131 156.6232 0004426 279.0221  81.0127 14.41467665360950
ORBCOMM FM09 [-]        
1 25116U 97084E   23341.59942201  .00001156  00000+0  39699-3 0  9999
2 25116  45.0131 157.2299 0005764 262.7709  97.2485 14.41437979360958
